{"type": "FeatureCollection", "features": [ {"type": "Feature", "properties": {"norad_id": 34001, "name": "COSMOS 2251 DEB", "group": "cosmos-2251-debris", "lat": 22.969255828024224, "lon": 83.73862975513343, "alt_km": 781.2735023533523, "timestamp": "2025-12-18T15:47:11.618722+00:00", "meta": {"OBJECT_NAME": "COSMOS 2251 DEB", "OBJECT_ID": "1993-036GL", "EPOCH": "2025-12-18T05:44:41.603424", "MEAN_MOTION": 14.37105218, "ECCENTRICITY": 0.0020205, "INCLINATION": 74.0389, "RA_OF_ASC_NODE": 271.4749, "ARG_OF_PERICENTER": 351.456, "MEAN_ANOMALY": 160.6672, "EPHEMERIS_TYPE": 0, "CLASSIFICATION_TYPE": "U", "NORAD_CAT_ID": 34001, "ELEMENT_SET_NO": 999, "REV_AT_EPOCH": 88225, "BSTAR": 0.00015914103, "MEAN_MOTION_DOT": 4.47e-06, "MEAN_MOTION_DDOT": 0}, "tle": {"line1": "1 34001U 93036GL  25352.23937041  .00000447  00000+0  15914-3 0  9992", "line2": "2 34001  74.0389 271.4749 0020205 351.4560 160.6672 14.37105218882253"}}, "geometry": {"type": "Point", "coordinates": [83.73862975513343, 22.969255828024224]}}, {"type": "Feature", "properties": {"norad_id": 34003, "name": "COSMOS 2251 DEB", "group": "cosmos-2251-debris", "lat": -5.072222802208633, "lon": -86.26888620808553, "alt_km": 778.199017115855, "timestamp": "2025-12-18T15:47:11.618732+00:00", "meta": {"OBJECT_NAME": "COSMOS 2251 DEB", "OBJECT_ID": "1993-036GN", "EPOCH": "2025-12-18T05:24:13.344480", "MEAN_MOTION": 13.84182116, "ECCENTRICITY": 0.02748012, "INCLINATION": 74.0782, "RA_OF_ASC_NODE": 275.9108, "ARG_OF_PERICENTER": 26.6559, "MEAN_ANOMALY": 334.8394, "EPHEMERIS_TYPE": 0, "CLASSIFICATION_TYPE": "U", "NORAD_CAT_ID": 34003, "ELEMENT_SET_NO": 999, "REV_AT_EPOCH": 84501, "BSTAR": 0.0016318566, "MEAN_MOTION_DOT": 2.416e-05, "MEAN_MOTION_DDOT": 0}, "tle": {"line1": "1 34003U 93036GN  25352.22515445  .00002416  00000+0  16319-2 0  9990", "line2": "2 34003  74.0782 275.9108 0274801  26.6559 334.8394 13.84182116845014"}}, "geometry": {"type": "Point", "coordinates": [-86.26888620808553, -5.072222802208633]}}, {"type": "Feature", "properties": {"norad_id": 34004, "name": "COSMOS 2251 DEB", "group": "cosmos-2251-debris", "lat": -60.00906577664979, "lon": -87.7241806361019, "alt_km": 712.8483831128269, "timestamp": "2025-12-18T15:47:11.618742+00:00", "meta": {"OBJECT_NAME": "COSMOS 2251 DEB", "OBJECT_ID": "1993-036GP", "EPOCH": "2025-12-18T06:08:21.723936", "MEAN_MOTION": 14.49060183, "ECCENTRICITY": 0.00334298, "INCLINATION": 74.0353, "RA_OF_ASC_NODE": 302.7655, "ARG_OF_PERICENTER": 314.2883, "MEAN_ANOMALY": 45.5535, "EPHEMERIS_TYPE": 0, "CLASSIFICATION_TYPE": "U", "NORAD_CAT_ID": 34004, "ELEMENT_SET_NO": 999, "REV_AT_EPOCH": 88110, "BSTAR": 0.0010277941, "MEAN_MOTION_DOT": 3.904e-05, "MEAN_MOTION_DDOT": 0}, "tle": {"line1": "1 34004U 93036GP  25352.25580699  .00003904  00000+0  10278-2 0  9998", "line2": "2 34004  74.0353 302.7655 0033429 314.2883  45.5535 14.49060183881104"}}, "geometry": {"type": "Point", "coordinates": [-87.7241806361019, -60.00906577664979]}}, {"type": "Feature", "properties": {"norad_id": 34005, "name": "COSMOS 2251 DEB", "group": "cosmos-2251-debris", "lat": 22.82916852514481, "lon": -150.368806545386, "alt_km": 750.1320919258005, "timestamp": "2025-12-18T15:47:11.618752+00:00", "meta": {"OBJECT_NAME": "COSMOS 2251 DEB", "OBJECT_ID": "1993-036GQ", "EPOCH": "2025-12-18T01:22:58.158912", "MEAN_MOTION": 14.40308165, "ECCENTRICITY": 0.00210218, "INCLINATION": 74.0438, "RA_OF_ASC_NODE": 203.8223, "ARG_OF_PERICENTER": 321.1407, "MEAN_ANOMALY": 191.9282, "EPHEMERIS_TYPE": 0, "CLASSIFICATION_TYPE": "U", "NORAD_CAT_ID": 34005, "ELEMENT_SET_NO": 999, "REV_AT_EPOCH": 88455, "BSTAR": 9.2995666e-05, "MEAN_MOTION_DOT": 2.69e-06, "MEAN_MOTION_DDOT": 0}, "tle": {"line1": "1 34005U 93036GQ  25352.05761758  .00000269  00000+0  92996-4 0  9994", "line2": "2 34005  74.0438 203.8223 0021021 321.1407 191.9282 14.40308165884558"}}, "geometry": {"type": "Point", "coordinates": [-150.368806545386, 22.82916852514481]}}, {"type": "Feature", "properties": {"norad_id": 34006, "name": "COSMOS 2251 DEB", "group": "cosmos-2251-debris", "lat": 11.64077462523574, "lon": 134.7411831767105, "alt_km": 578.774093948904, "timestamp": "2025-12-18T15:47:11.618763+00:00", "meta": {"OBJECT_NAME": "COSMOS 2251 DEB", "OBJECT_ID": "1993-036GR", "EPOCH": "2025-12-18T03:40:23.640096", "MEAN_MOTION": 14.95111084, "ECCENTRICITY": 0.00113796, "INCLINATION": 74.0524, "RA_OF_ASC_NODE": 132.3805, "ARG_OF_PERICENTER": 71.3364, "MEAN_ANOMALY": 105.5146, "EPHEMERIS_TYPE": 0, "CLASSIFICATION_TYPE": "U", "NORAD_CAT_ID": 34006, "ELEMENT_SET_NO": 999, "REV_AT_EPOCH": 88749, "BSTAR": 0.0025744949, "MEAN_MOTION_DOT": 0.00028351, "MEAN_MOTION_DDOT": 0}, "tle": {"line1": "1 34006U 93036GR  25352.15305139  .00028351  00000+0  25745-2 0  9991", "line2": "2 34006  74.0524 132.3805 0011379  71.3364 105.5146 14.95111084887496"}}, "geometry": {"type": "Point", "coordinates": [134.7411831767105, 11.64077462523574]}}, {"type": "Feature", "properties": {"norad_id": 34007, "name": "COSMOS 2251 DEB", "group": "cosmos-2251-debris", "lat": 26.22722546353313, "lon": -16.37972558840189, "alt_km": 671.3841512474937, "timestamp": "2025-12-18T15:47:11.618773+00:00", "meta": {"OBJECT_NAME": "COSMOS 2251 DEB", "OBJECT_ID": "1993-036GS", "EPOCH": "2025-12-18T07:27:59.216256", "MEAN_MOTION": 14.64824271, "ECCENTRICITY": 0.0044235, "INCLINATION": 74.0187, "RA_OF_ASC_NODE": 336.1709, "ARG_OF_PERICENTER": 109.2928, "MEAN_ANOMALY": 251.3033, "EPHEMERIS_TYPE": 0, "CLASSIFICATION_TYPE": "U", "NORAD_CAT_ID": 34007, "ELEMENT_SET_NO": 999, "REV_AT_EPOCH": 89161, "BSTAR": 0.00054397334, "MEAN_MOTION_DOT": 2.915e-05, "MEAN_MOTION_DDOT": 0}, "tle": {"line1": "1 34007U 93036GS  25352.31110204  .00002915  00000+0  54397-3 0  9991", "line2": "2 34007  74.0187 336.1709 0044235 109.2928 251.3033 14.64824271891612"}}, "geometry": {"type": "Point", "coordinates": [-16.37972558840189, 26.22722546353313]}}, {"type": "Feature", "properties": {"norad_id": 34008, "name": "COSMOS 2251 DEB", "group": "cosmos-2251-debris", "lat": 39.83581534479815, "lon": 125.88548635440131, "alt_km": 795.2787020710048, "timestamp": "2025-12-18T15:47:11.618783+00:00", "meta": {"OBJECT_NAME": "COSMOS 2251 DEB", "OBJECT_ID": "1993-036GT", "EPOCH": "2025-12-18T07:20:51.444672", "MEAN_MOTION": 14.33150135, "ECCENTRICITY": 0.00245103, "INCLINATION": 74.0344, "RA_OF_ASC_NODE": 320.3449, "ARG_OF_PERICENTER": 314.6732, "MEAN_ANOMALY": 170.0712, "EPHEMERIS_TYPE": 0, "CLASSIFICATION_TYPE": "U", "NORAD_CAT_ID": 34008, "ELEMENT_SET_NO": 999, "REV_AT_EPOCH": 88044, "BSTAR": 9.9450419e-05, "MEAN_MOTION_DOT": 2.48e-06, "MEAN_MOTION_DDOT": 0}, "tle": {"line1": "1 34008U 93036GT  25352.30615098  .00000248  00000+0  99450-4 0  9999", "line2": "2 34008  74.0344 320.3449 0024510 314.6732 170.0712 14.33150135880440"}}, "geometry": {"type": "Point", "coordinates": [125.88548635440131, 39.83581534479815]}}, {"type": "Feature", "properties": {"norad_id": 34009, "name": "COSMOS 2251 DEB", "group": "cosmos-2251-debris", "lat": 3.8147243197162473, "lon": 145.02773191109117, "alt_km": 798.1071120719307, "timestamp": "2025-12-18T15:47:11.618793+00:00", "meta": {"OBJECT_NAME": "COSMOS 2251 DEB", "OBJECT_ID": "1993-036GU", "EPOCH": "2025-12-18T07:08:09.662784", "MEAN_MOTION": 14.33226655, "ECCENTRICITY": 0.00267224, "INCLINATION": 74.0372, "RA_OF_ASC_NODE": 326.7797, "ARG_OF_PERICENTER": 34.724, "MEAN_ANOMALY": 82.0223, "EPHEMERIS_TYPE": 0, "CLASSIFICATION_TYPE": "U", "NORAD_CAT_ID": 34009, "ELEMENT_SET_NO": 999, "REV_AT_EPOCH": 88025, "BSTAR": 0.00012281864, "MEAN_MOTION_DOT": 3.13e-06, "MEAN_MOTION_DDOT": 0}, "tle": {"line1": "1 34009U 93036GU  25352.29733406  .00000313  00000+0  12282-3 0  9992", "line2": "2 34009  74.0372 326.7797 0026722  34.7240  82.0223 14.33226655880258"}}, "geometry": {"type": "Point", "coordinates": [145.02773191109117, 3.8147243197162473]}}, {"type": "Feature", "properties": {"norad_id": 34010, "name": "COSMOS 2251 DEB", "group": "cosmos-2251-debris", "lat": 70.11502984473256, "lon": -36.608570241898754, "alt_km": 496.6990534258457, "timestamp": "2025-12-18T15:47:11.618803+00:00", "meta": {"OBJECT_NAME": "COSMOS 2251 DEB", "OBJECT_ID": "1993-036GV", "EPOCH": "2025-12-18T04:23:04.964640", "MEAN_MOTION": 15.19605719, "ECCENTRICITY": 0.00044414, "INCLINATION": 73.9994, "RA_OF_ASC_NODE": 271.8879, "ARG_OF_PERICENTER": 62.9606, "MEAN_ANOMALY": 297.2043, "EPHEMERIS_TYPE": 0, "CLASSIFICATION_TYPE": "U", "NORAD_CAT_ID": 34010, "ELEMENT_SET_NO": 999, "REV_AT_EPOCH": 89368, "BSTAR": 0.0040476564, "MEAN_MOTION_DOT": 0.00087256, "MEAN_MOTION_DDOT": 0}, "tle": {"line1": "1 34010U 93036GV  25352.18269635  .00087256  00000+0  40477-2 0  9997", "line2": "2 34010  73.9994 271.8879 0004441  62.9606 297.2043 15.19605719893680"}}, "geometry": {"type": "Point", "coordinates": [-36.608570241898754, 70.11502984473256]}}, {"type": "Feature", "properties": {"norad_id": 34011, "name": "COSMOS 2251 DEB", "group": "cosmos-2251-debris", "lat": 2.7661798258336483, "lon": -40.038831191492044, "alt_km": 734.5958053387112, "timestamp": "2025-12-18T15:47:11.618813+00:00", "meta": {"OBJECT_NAME": "COSMOS 2251 DEB", "OBJECT_ID": "1993-036GW", "EPOCH": "2025-12-17T23:07:14.633184", "MEAN_MOTION": 14.4179436, "ECCENTRICITY": 0.00359281, "INCLINATION": 74.0143, "RA_OF_ASC_NODE": 320.4556, "ARG_OF_PERICENTER": 42.4691, "MEAN_ANOMALY": 317.9234, "EPHEMERIS_TYPE": 0, "CLASSIFICATION_TYPE": "U", "NORAD_CAT_ID": 34011, "ELEMENT_SET_NO": 999, "REV_AT_EPOCH": 87991, "BSTAR": 0.00059386852, "MEAN_MOTION_DOT": 1.929e-05, "MEAN_MOTION_DDOT": 0}, "tle": {"line1": "1 34011U 93036GW  25351.96336381  .00001929  00000+0  59387-3 0  9990", "line2": "2 34011  74.0143 320.4556 0035928  42.4691 317.9234 14.41794360879910"}}, "geometry": {"type": "Point", "coordinates": [-40.038831191492044, 2.7661798258336483]}}]}